0 COSMOS 1285 DEB
1 26680U 81071L   13280.17025918  .00000258  00000-0  00000+0 0  6672
2 26680 067.1015 077.7637 5846337 097.0750 008.8341 01.98252885116083
0 COSMOS 1285 DEB
1 26680U 81071L   13285.56683896 -.00000340  00000-0  00000+0 0  6689
2 26680 067.1032 077.4315 5847937 096.9476 260.5223 01.98255935116199
0 COSMOS 1285 DEB
1 26680U 81071L   13293.75150718 -.00000721  00000-0  00000+0 0  6695
2 26680 067.1085 076.9133 5850014 096.7683 342.0852 01.98247445116356
